[{"OBJECT_NAME":"CUBESX-HSE 3 (RS42S)","OBJECT_ID":"2023-091N","EPOCH":"2026-03-09T22:57:25.321248","MEAN_MOTION":15.286147,"ECCENTRICITY":0.00127191,"INCLINATION":97.5203,"RA_OF_ASC_NODE":133.4295,"ARG_OF_PERICENTER":86.5376,"MEAN_ANOMALY":273.7318,"EPHEMERIS_TYPE":0,"CLASSIFICATION_TYPE":"U","NORAD_CAT_ID":57178,"ELEMENT_SET_NO":999,"REV_AT_EPOCH":14925,"BSTAR":0.00059055694,"MEAN_MOTION_DOT":0.00016417,"MEAN_MOTION_DDOT":0},{"OBJECT_NAME":"STARLINK-31638","OBJECT_ID":"2024-071F","EPOCH":"2026-03-09T01:55:13.989792","MEAN_MOTION":15.27574897,"ECCENTRICITY":0.00015954,"INCLINATION":43.0038,"RA_OF_ASC_NODE":343.0766,"ARG_OF_PERICENTER":263.3167,"MEAN_ANOMALY":96.7503,"EPHEMERIS_TYPE":0,"CLASSIFICATION_TYPE":"U","NORAD_CAT_ID":59489,"ELEMENT_SET_NO":999,"REV_AT_EPOCH":10811,"BSTAR":-0.0001845342,"MEAN_MOTION_DOT":-5.336e-5,"MEAN_MOTION_DDOT":0}]
